NORAD_CAT_ID,OBJECT_NAME,OBJECT_TYPE,EPOCH,MEAN_MOTION,ECCENTRICITY,INCLINATION,RA_OF_ASC_NODE,ARG_OF_PERICENTER,MEAN_ANOMALY,BSTAR,MEAN_MOTION_DOT,MEAN_MOTION_DDOT,TLE_LINE0,TLE_LINE1,TLE_LINE2,SEMIMAJOR_AXIS,PERIOD,APOGEE,PERIGEE,DECAYED
53567.0,STARLINK-4585,PAYLOAD,2024-03-25 22:51:47,15.08834539,0.0001488,53.219,18.3146,103.235,256.8809,-0.00015218,-2.709e-05,0.0,0 STARLINK-4585,1 53567U 22101AS  24085.95263096 -.00002709  00000-0 -15218-3 0  9991,2 53567  53.2190  18.3146 0001488 103.2350 256.8809 15.08834539 88691,6917.897,95.438,540.791,538.733,0.0
53567.0,STARLINK-4585,PAYLOAD,2024-03-26 05:13:19,15.0883936,0.00016,53.2191,17.1246,104.0502,256.0668,7.8471e-05,9.61e-06,0.0,0 STARLINK-4585,1 53567U 22101AS  24086.21759152  .00000961  00000-0  78471-4 0  9991,2 53567  53.2191  17.1246 0001600 104.0502 256.0668 15.08839360 88731,6917.882,95.438,540.854,538.64,0.0
53567.0,STARLINK-4585,PAYLOAD,2024-03-26 19:31:48,15.088337,0.0001833,53.2199,14.4479,120.9786,239.1387,0.00025414,3.758e-05,0.0,0 STARLINK-4585,1 53567U 22101AS  24086.81375975  .00003758  00000-0  25414-3 0  9999,2 53567  53.2199  14.4479 0001833 120.9786 239.1387 15.08833700 88828,6917.9,95.438,541.033,538.497,0.0
53567.0,STARLINK-4585,PAYLOAD,2024-03-26 22:42:34,15.08848279,0.0001608,53.2194,13.8558,117.6952,242.4203,0.00031977,4.806e-05,0.0,0 STARLINK-4585,1 53567U 22101AS  24086.94623315  .00004806  00000-0  31977-3 0  9993,2 53567  53.2194  13.8558 0001608 117.6952 242.4203 15.08848279 88845,6917.855,95.437,540.832,538.608,0.0
53567.0,STARLINK-4585,PAYLOAD,2024-03-27 11:25:40,15.08837175,0.0001795,53.219,11.4774,95.2232,264.8965,0.00010385,1.365e-05,0.0,0 STARLINK-4585,1 53567U 22101AS  24087.47615904  .00001365  00000-0  10385-3 0  9994,2 53567  53.2190  11.4774 0001795  95.2232 264.8965 15.08837175 88929,6917.889,95.438,540.996,538.512,0.0
53567.0,STARLINK-4585,PAYLOAD,2024-03-27 22:33:21,15.08845758,0.0001725,53.2187,9.3944,114.6171,245.5001,0.00028068,4.182e-05,0.0,0 STARLINK-4585,1 53567U 22101AS  24087.93983393  .00004182  00000-0  28068-3 0  9992,2 53567  53.2187   9.3944 0001725 114.6171 245.5001 15.08845758 88991,6917.863,95.437,540.921,538.534,0.0
53567.0,STARLINK-4585,PAYLOAD,2024-03-28 01:44:07,15.08850653,0.0001345,53.2177,8.8027,95.323,264.7916,0.00035023,5.292e-05,0.0,0 STARLINK-4585,1 53567U 22101AS  24088.07231278  .00005292  00000-0  35023-3 0  9998,2 53567  53.2177   8.8027 0001345  95.3230 264.7916 15.08850653 89017,6917.848,95.437,540.643,538.782,0.0
53567.0,STARLINK-4585,PAYLOAD,2024-03-28 11:16:26,15.08851218,0.0001209,53.2175,7.0168,87.6721,272.441,0.00023221,3.411e-05,0.0,0 STARLINK-4585,1 53567U 22101AS  24088.46974999  .00003411  00000-0  23221-3 0  9993,2 53567  53.2175   7.0168 0001209  87.6721 272.4410 15.08851218 89079,6917.846,95.437,540.547,538.875,0.0
53567.0,STARLINK-4585,PAYLOAD,2024-03-28 19:13:22,15.08833059,0.000135,53.2162,5.5309,87.0581,273.0566,-0.00014053,-2.523e-05,0.0,0 STARLINK-4585,1 53567U 22101AS  24088.80095958 -.00002523  00000-0 -14053-3 0  9998,2 53567  53.2162   5.5309 0001350  87.0581 273.0566 15.08833059 89128,6917.902,95.438,540.701,538.833,0.0
53567.0,STARLINK-4585,PAYLOAD,2024-03-28 22:24:08,15.08842095,0.0001471,53.2166,4.9354,99.6255,260.4903,-1.5346e-05,-5.32e-06,0.0,0 STARLINK-4585,1 53567U 22101AS  24088.93343487 -.00000532  00000-0 -15346-4 0  9990,2 53567  53.2166   4.9354 0001471  99.6255 260.4903 15.08842095 89143,6917.874,95.437,540.757,538.721,0.0
53567.0,STARLINK-4585,PAYLOAD,2024-03-29 03:10:17,15.08846999,0.0001382,53.217,4.0423,89.433,270.682,8.5213e-05,1.069e-05,0.0,0 STARLINK-4585,1 53567U 22101AS  24089.13215155  .00001069  00000-0  85213-4 0  9997,2 53567  53.2170   4.0423 0001382  89.4330 270.6820 15.08846999 89179,6917.859,95.437,540.68,538.768,0.0
53567.0,STARLINK-4585,PAYLOAD,2024-03-29 11:07:13,15.08838228,0.0001296,53.2169,2.5568,92.875,267.2391,-7.9987e-05,-1.561e-05,0.0,0 STARLINK-4585,1 53567U 22101AS  24089.46335486 -.00001561  00000-0 -79987-4 0  9993,2 53567  53.2169   2.5568 0001296  92.8750 267.2391 15.08838228 89225,6917.886,95.438,540.647,538.854,0.0
53567.0,STARLINK-4585,PAYLOAD,2024-03-29 22:14:56,15.08839027,0.0001386,53.2172,0.4775,95.8213,264.2937,3.5768e-05,2.81e-06,0.0,0 STARLINK-4585,1 53567U 22101AS  24089.92703739  .00000281  00000-0  35768-4 0  9999,2 53567  53.2172   0.4775 0001386  95.8213 264.2937 15.08839027 89291,6917.883,95.438,540.707,538.79,0.0
53567.0,STARLINK-4585,PAYLOAD,2024-03-30 10:58:01,15.08838518,0.0001475,53.2165,358.0975,91.5065,268.6096,8.223e-05,1.021e-05,0.0,0 STARLINK-4585,1 53567U 22101AS  24090.45695934  .00001021  00000-0  82230-4 0  9995,2 53567  53.2165 358.0975 0001475  91.5065 268.6096 15.08838518 89371,6917.885,95.438,540.77,538.73,0.0
53567.0,STARLINK-4585,PAYLOAD,2024-03-30 22:05:43,15.08842027,0.0001715,53.2172,356.017,90.9553,269.1635,0.00026067,3.863e-05,0.0,0 STARLINK-4585,1 53567U 22101AS  24090.92064124  .00003863  00000-0  26067-3 0  9999,2 53567  53.2172 356.0170 0001715  90.9553 269.1635 15.08842027 89449,6917.874,95.437,540.926,538.553,0.0
53567.0,STARLINK-4585,PAYLOAD,2024-03-31 02:51:52,15.08848391,0.0001435,53.2167,355.122,90.4777,269.6379,0.00033619,5.068e-05,0.0,0 STARLINK-4585,1 53567U 22101AS  24091.11935850  .00005068  00000-0  33619-3 0  9994,2 53567  53.2167 355.1220 0001435  90.4777 269.6379 15.08848391 89474,6917.855,95.437,540.712,538.727,0.0
53567.0,STARLINK-4585,PAYLOAD,2024-03-31 10:48:48,15.08845238,0.0001369,53.2161,353.6366,88.8242,271.2907,0.00025595,3.788e-05,0.0,0 STARLINK-4585,1 53567U 22101AS  24091.45055945  .00003788  00000-0  25595-3 0  9990,2 53567  53.2161 353.6366 0001369  88.8242 271.2907 15.08845238 89525,6917.864,95.437,540.676,538.782,0.0
53567.0,STARLINK-4585,PAYLOAD,2024-03-31 23:31:53,15.08847454,0.0001279,53.2152,351.2582,89.4516,270.6623,0.0002679,3.979e-05,0.0,0 STARLINK-4585,1 53567U 22101AS  24091.98047724  .00003979  00000-0  26790-3 0  9994,2 53567  53.2152 351.2582 0001279  89.4516 270.6623 15.08847454 89609,6917.858,95.437,540.607,538.838,0.0
53567.0,STARLINK-4585,PAYLOAD,2024-04-01 10:39:34,15.0885027,0.0001088,53.2153,349.1788,92.0454,268.0663,0.00027112,4.031e-05,0.0,0 STARLINK-4585,1 53567U 22101AS  24092.44415498  .00004031  00000-0  27112-3 0  9992,2 53567  53.2153 349.1788 0001088  92.0454 268.0663 15.08850270 89675,6917.849,95.437,540.467,538.961,0.0
53567.0,STARLINK-4585,PAYLOAD,2024-04-01 20:11:54,15.08843315,0.000155,53.2174,347.3936,98.1525,261.9643,0.00012852,1.758e-05,0.0,0 STARLINK-4585,1 53567U 22101AS  24092.84159748  .00001758  00000-0  12852-3 0  9997,2 53567  53.2174 347.3936 0001550  98.1525 261.9643 15.08843315 89732,6917.87,95.437,540.808,538.663,0.0
53567.0,STARLINK-4585,PAYLOAD,2024-04-02 02:33:26,15.08848002,0.0001409,53.2173,346.2027,108.7119,251.4026,0.00015436,2.17e-05,0.0,0 STARLINK-4585,1 53567U 22101AS  24093.10655508  .00002170  00000-0  15436-3 0  9992,2 53567  53.2173 346.2027 0001409 108.7119 251.4026 15.08848002 89771,6917.856,95.437,540.696,538.746,0.0
53567.0,STARLINK-4585,PAYLOAD,2024-04-02 23:13:27,15.08842113,0.0001158,53.2157,342.3376,92.1052,268.0073,8.179e-05,1.014e-05,0.0,0 STARLINK-4585,1 53567U 22101AS  24093.96767887  .00001014  00000-0  81790-4 0  9993,2 53567  53.2157 342.3376 0001158  92.1052 268.0073 15.08842113 89908,6917.874,95.437,540.54,538.938,0.0
53567.0,STARLINK-4585,PAYLOAD,2024-04-03 16:42:42,15.08836622,0.0001354,53.2171,339.0661,99.8026,260.3119,8.7049e-05,1.098e-05,0.0,0 STARLINK-4585,1 53567U 22101AS  24094.69632276  .00001098  00000-0  87049-4 0  9992,2 53567  53.2171 339.0661 0001354  99.8026 260.3119 15.08836622 90015,6917.891,95.438,540.692,538.819,0.0
53567.0,STARLINK-4585,PAYLOAD,2024-04-03 23:04:14,15.08839274,0.0001284,53.2169,337.8784,96.4971,263.6168,0.00011703,1.575e-05,0.0,0 STARLINK-4585,1 53567U 22101AS  24094.96128206  .00001575  00000-0  11703-3 0  9998,2 53567  53.2169 337.8784 0001284  96.4971 263.6168 15.08839274 90058,6917.883,95.438,540.636,538.859,0.0
53567.0,STARLINK-4585,PAYLOAD,2024-04-04 08:36:33,15.08839221,0.0001211,53.2166,336.0945,92.9589,267.1541,4.2707e-05,3.92e-06,0.0,0 STARLINK-4585,1 53567U 22101AS  24095.35872222  .00000392  00000-0  42707-4 0  9991,2 53567  53.2166 336.0945 0001211  92.9589 267.1541 15.08839221 90114,6917.883,95.438,540.586,538.91,0.0
53567.0,STARLINK-4585,PAYLOAD,2024-04-04 19:44:15,15.0884218,0.0001197,53.2161,334.0125,90.801,269.3119,0.00012278,1.667e-05,0.0,0 STARLINK-4585,1 53567U 22101AS  24095.82240111  .00001667  00000-0  12278-3 0  9994,2 53567  53.2161 334.0125 0001197  90.8010 269.3119 15.08842180 90186,6917.874,95.437,540.567,538.911,0.0
53567.0,STARLINK-4585,PAYLOAD,2024-04-04 22:55:01,15.08845124,0.0001212,53.2161,333.4182,91.3895,268.7236,0.0001573,2.217e-05,0.0,0 STARLINK-4585,1 53567U 22101AS  24095.95487936  .00002217  00000-0  15730-3 0  9994,2 53567  53.2161 333.4182 0001212  91.3895 268.7236 15.08845124 90204,6917.865,95.437,540.568,538.891,0.0
53567.0,STARLINK-4585,PAYLOAD,2024-04-05 08:27:20,15.08846317,0.0001209,53.2162,331.6336,88.205,271.9081,0.00017219,2.454e-05,0.0,0 STARLINK-4585,1 53567U 22101AS  24096.35231764  .00002454  00000-0  17219-3 0  9992,2 53567  53.2162 331.6336 0001209  88.2050 271.9081 15.08846317 90265,6917.861,95.437,540.562,538.89,0.0
53567.0,STARLINK-4585,PAYLOAD,2024-04-05 21:10:25,15.08837225,0.0001301,53.2172,329.2552,90.7939,269.3202,7.6777e-05,9.34e-06,0.0,0 STARLINK-4585,1 53567U 22101AS  24096.88224484  .00000934  00000-0  76777-4 0  9997,2 53567  53.2172 329.2552 0001301  90.7939 269.3202 15.08837225 90349,6917.889,95.438,540.654,538.854,0.0
53567.0,STARLINK-4585,PAYLOAD,2024-04-06 01:56:35,15.08841741,0.0001332,53.217,328.3629,93.6,266.5144,0.00011977,1.619e-05,0.0,0 STARLINK-4585,1 53567U 22101AS  24097.08096068  .00001619  00000-0  11977-3 0  9996,2 53567  53.2170 328.3629 0001332  93.6000 266.5144 15.08841741 90372,6917.875,95.437,540.662,538.819,0.0
